ONEWEB-0350             
1 49214U 21083AE  24337.53861872 -.00000367  00000+0 -10410-2 0  9998
2 49214  87.8945  71.9304 0001652 115.7539 244.3761 13.13469268157207
ONEWEB-0351             
1 49215U 21083AF  24337.37108224  .00000066  00000+0  13018-3 0  9998
2 49215  87.9264  26.2126 0001070  74.9513 285.1738 13.20771439162612
ONEWEB-0352             
1 49216U 21083AG  24337.51957191 -.00000164  00000+0 -48278-3 0  9997
2 49216  87.8933  71.9698 0001171 100.9737 259.1524 13.13467816157291
ONEWEB-0354             
1 49217U 21083AH  24337.39647235  .00000201  00000+0  46356-3 0  9994
2 49217  87.9272  26.1987 0001837 108.6395 251.4938 13.20771751162650
ONEWEB-0355             
1 49218U 21083AJ  24337.54973911 -.00000897  00000+0 -24931-2 0  9992
2 49218  87.8862  71.9611 0001958 107.6183 252.5160 13.13460818158470
ONEWEB-0357             
1 49219U 21083AK  24337.39331065  .00000142  00000+0  31765-3 0  9999
2 49219  87.9268  26.2119 0001631  98.0695 262.0624 13.20770543162650
ONEWEB-0332             
1 49279U 21090A   24337.46938153  .00000232  00000+0  59049-3 0  9997
2 49279  87.9013  41.4228 0001691  90.0807 270.0517 13.14504043153784
ONEWEB-0347             
1 49280U 21090B   24337.38385144  .00000099  00000+0  21075-3 0  9995
2 49280  87.9282  26.2171 0001992  86.2726 273.8635 13.20772217156886
